[{"OBJECT_NAME":"SAOCOM 1A","OBJECT_ID":"2018-076A","EPOCH":"2026-03-11T18:51:32.815872","MEAN_MOTION":14.82143192,"ECCENTRICITY":0.0001403,"INCLINATION":97.8898,"RA_OF_ASC_NODE":258.9285,"ARG_OF_PERICENTER":86.0678,"MEAN_ANOMALY":274.0695,"EPHEMERIS_TYPE":0,"CLASSIFICATION_TYPE":"U","NORAD_CAT_ID":43641,"ELEMENT_SET_NO":999,"REV_AT_EPOCH":40167,"BSTAR":0.00012376,"MEAN_MOTION_DOT":9.33e-6,"MEAN_MOTION_DDOT":0},{"OBJECT_NAME":"H-2A R/B","OBJECT_ID":"2018-084L","EPOCH":"2026-03-11T21:00:07.720704","MEAN_MOTION":15.4145029,"ECCENTRICITY":0.0025253,"INCLINATION":98.8731,"RA_OF_ASC_NODE":288.7302,"ARG_OF_PERICENTER":17.86,"MEAN_ANOMALY":342.3524,"EPHEMERIS_TYPE":0,"CLASSIFICATION_TYPE":"U","NORAD_CAT_ID":43682,"ELEMENT_SET_NO":999,"REV_AT_EPOCH":40611,"BSTAR":0.00046973,"MEAN_MOTION_DOT":0.00019799,"MEAN_MOTION_DDOT":0},{"OBJECT_NAME":"SAOCOM 1B","OBJECT_ID":"2020-059A","EPOCH":"2026-03-11T19:36:32.892768","MEAN_MOTION":14.82152765,"ECCENTRICITY":0.0001411,"INCLINATION":97.8897,"RA_OF_ASC_NODE":258.0569,"ARG_OF_PERICENTER":87.3315,"MEAN_ANOMALY":272.8059,"EPHEMERIS_TYPE":0,"CLASSIFICATION_TYPE":"U","NORAD_CAT_ID":46265,"ELEMENT_SET_NO":999,"REV_AT_EPOCH":29906,"BSTAR":0.00017346,"MEAN_MOTION_DOT":1.329e-5,"MEAN_MOTION_DDOT":0},{"OBJECT_NAME":"CSS (TIANHE)","OBJECT_ID":"2021-035A","EPOCH":"2026-03-11T18:19:03.950688","MEAN_MOTION":15.6078298,"ECCENTRICITY":0.00068,"INCLINATION":41.4661,"RA_OF_ASC_NODE":195.544,"ARG_OF_PERICENTER":284.6024,"MEAN_ANOMALY":75.4061,"EPHEMERIS_TYPE":0,"CLASSIFICATION_TYPE":"U","NORAD_CAT_ID":48274,"ELEMENT_SET_NO":999,"REV_AT_EPOCH":27793,"BSTAR":0.00034031,"MEAN_MOTION_DOT":0.00028963,"MEAN_MOTION_DDOT":0},{"OBJECT_NAME":"CZ-2C R/B","OBJECT_ID":"2022-058K","EPOCH":"2026-03-11T19:50:29.891040","MEAN_MOTION":15.54400275,"ECCENTRICITY":0.0042063,"INCLINATION":50.1886,"RA_OF_ASC_NODE":307.2962,"ARG_OF_PERICENTER":209.9297,"MEAN_ANOMALY":149.9268,"EPHEMERIS_TYPE":0,"CLASSIFICATION_TYPE":"U","NORAD_CAT_ID":52794,"ELEMENT_SET_NO":999,"REV_AT_EPOCH":21046,"BSTAR":0.00046216,"MEAN_MOTION_DOT":0.00031787,"MEAN_MOTION_DDOT":0},{"OBJECT_NAME":"CZ-2C R/B","OBJECT_ID":"2022-132E","EPOCH":"2026-03-11T13:11:52.457280","MEAN_MOTION":15.62029112,"ECCENTRICITY":0.0020522,"INCLINATION":97.2967,"RA_OF_ASC_NODE":73.9235,"ARG_OF_PERICENTER":85.3939,"MEAN_ANOMALY":274.9662,"EPHEMERIS_TYPE":0,"CLASSIFICATION_TYPE":"U","NORAD_CAT_ID":54039,"ELEMENT_SET_NO":999,"REV_AT_EPOCH":19066,"BSTAR":0.00056863,"MEAN_MOTION_DOT":0.00050263,"MEAN_MOTION_DDOT":0},{"OBJECT_NAME":"GSLV R/B","OBJECT_ID":"2022-138AN","EPOCH":"2026-03-11T17:26:08.045664","MEAN_MOTION":14.9679123,"ECCENTRICITY":0.0023206,"INCLINATION":87.3873,"RA_OF_ASC_NODE":165.6803,"ARG_OF_PERICENTER":139.7353,"MEAN_ANOMALY":220.5603,"EPHEMERIS_TYPE":0,"CLASSIFICATION_TYPE":"U","NORAD_CAT_ID":54149,"ELEMENT_SET_NO":999,"REV_AT_EPOCH":18423,"BSTAR":0.00035019,"MEAN_MOTION_DOT":4.056e-5,"MEAN_MOTION_DDOT":0},{"OBJECT_NAME":"XRISM","OBJECT_ID":"2023-137A","EPOCH":"2026-03-11T19:40:33.116736","MEAN_MOTION":15.11526432,"ECCENTRICITY":0.0007911,"INCLINATION":31.0013,"RA_OF_ASC_NODE":269.8857,"ARG_OF_PERICENTER":60.2146,"MEAN_ANOMALY":299.9279,"EPHEMERIS_TYPE":0,"CLASSIFICATION_TYPE":"U","NORAD_CAT_ID":57800,"ELEMENT_SET_NO":999,"REV_AT_EPOCH":13811,"BSTAR":0.00029113,"MEAN_MOTION_DOT":5.156e-5,"MEAN_MOTION_DDOT":0},{"OBJECT_NAME":"ACS3","OBJECT_ID":"2024-077B","EPOCH":"2026-03-11T19:14:55.030848","MEAN_MOTION":13.89729233,"ECCENTRICITY":0.0061271,"INCLINATION":97.2057,"RA_OF_ASC_NODE":11.4389,"ARG_OF_PERICENTER":71.4035,"MEAN_ANOMALY":289.3771,"EPHEMERIS_TYPE":0,"CLASSIFICATION_TYPE":"U","NORAD_CAT_ID":59588,"ELEMENT_SET_NO":999,"REV_AT_EPOCH":9449,"BSTAR":0.025147,"MEAN_MOTION_DOT":0.00031418,"MEAN_MOTION_DDOT":0},{"OBJECT_NAME":"SZ-21 MODULE","OBJECT_ID":"2025-246C","EPOCH":"2026-03-11T09:51:03.159072","MEAN_MOTION":15.68699733,"ECCENTRICITY":0.000124,"INCLINATION":41.4735,"RA_OF_ASC_NODE":192.767,"ARG_OF_PERICENTER":303.7163,"MEAN_ANOMALY":56.356,"EPHEMERIS_TYPE":0,"CLASSIFICATION_TYPE":"U","NORAD_CAT_ID":66515,"ELEMENT_SET_NO":999,"REV_AT_EPOCH":1834,"BSTAR":0.00036895,"MEAN_MOTION_DOT":0.00043213,"MEAN_MOTION_DDOT":0}]
