SAOCOM 1A               
1 43641U 18076A   26070.78579648  .00000933  00000+0  12376-3 0  9995
2 43641  97.8898 258.9285 0001403  86.0678 274.0695 14.82143192401677
H-2A R/B                
1 43682U 18084L   26070.87508936  .00019799  00000+0  46973-3 0  9991
2 43682  98.8731 288.7302 0025253  17.8600 342.3524 15.41450290406116
SAOCOM 1B               
1 46265U 20059A   26070.81704737  .00001329  00000+0  17346-3 0  9999
2 46265  97.8897 258.0569 0001411  87.3315 272.8059 14.82152765299062
CSS (TIANHE)            
1 48274U 21035A   26070.76324017  .00028963  00000+0  34031-3 0  9992
2 48274  41.4661 195.5440 0006800 284.6024  75.4061 15.60782980277934
CZ-2C R/B               
1 52794U 22058K   26070.82673485  .00031787  00000+0  46216-3 0  9999
2 52794  50.1886 307.2962 0042063 209.9297 149.9268 15.54400275210464
CZ-2C R/B               
1 54039U 22132E   26070.54991270  .00050263  00000+0  56863-3 0  9999
2 54039  97.2967  73.9235 0020522  85.3939 274.9662 15.62029112190667
GSLV R/B                
1 54149U 22138AN  26070.72648201  .00004056  00000+0  35019-3 0  9999
2 54149  87.3873 165.6803 0023206 139.7353 220.5603 14.96791230184232
XRISM                   
1 57800U 23137A   26070.81982774  .00005156  00000+0  29113-3 0  9992
2 57800  31.0013 269.8857 0007911  60.2146 299.9279 15.11526432138113
ACS3                    
1 59588U 24077B   26070.80202582  .00031418  00000+0  25147-1 0  9993
2 59588  97.2057  11.4389 0061271  71.4035 289.3771 13.89729233 94490
SZ-21 MODULE            
1 66515U 25246C   26070.41045323  .00043213  00000+0  36895-3 0  9995
2 66515  41.4735 192.7670 0001240 303.7163  56.3560 15.68699733 18349
